[{"OBJECT_NAME":"CELESTIS-17 & SHERPA-FX1","OBJECT_ID":"2021-006CB","EPOCH":"2026-03-09T15:26:05.078112","MEAN_MOTION":15.30994801,"ECCENTRICITY":0.000663,"INCLINATION":97.2397,"RA_OF_ASC_NODE":112.1052,"ARG_OF_PERICENTER":178.1385,"MEAN_ANOMALY":181.9882,"EPHEMERIS_TYPE":0,"CLASSIFICATION_TYPE":"U","NORAD_CAT_ID":47486,"ELEMENT_SET_NO":999,"REV_AT_EPOCH":28406,"BSTAR":0.00024301,"MEAN_MOTION_DOT":7.207e-5,"MEAN_MOTION_DDOT":0},{"OBJECT_NAME":"STARLINK-32397","OBJECT_ID":"2024-187V","EPOCH":"2026-03-09T09:07:54.107904","MEAN_MOTION":15.3018745,"ECCENTRICITY":0.00013042,"INCLINATION":53.1607,"RA_OF_ASC_NODE":64.5183,"ARG_OF_PERICENTER":93.2929,"MEAN_ANOMALY":266.8221,"EPHEMERIS_TYPE":0,"CLASSIFICATION_TYPE":"U","NORAD_CAT_ID":61593,"ELEMENT_SET_NO":999,"REV_AT_EPOCH":7906,"BSTAR":-6.64363e-7,"MEAN_MOTION_DOT":-3.79e-6,"MEAN_MOTION_DDOT":0}]
