CELESTIS-17 & SHERPA-FX1
1 47486U 21006CB  26068.64311433  .00007207  00000+0  24301-3 0  9993
2 47486  97.2397 112.1052 0006630 178.1385 181.9882 15.30994801284065
STARLINK-32397          
1 61593U 24187V   26068.38048736 -.00000379  00000+0 -66436-6 0  9998
2 61593  53.1607  64.5183 0001304  93.2929 266.8221 15.30187450 79060
